start=new Date('2023-01-16T00:00:00.000Z').valueOf();
sats=[{"FILE":"3748322","OBJECT_ID":"2022-029AH","APOAPSIS":"541.363","EPOCH":"2023-01-15T18:49:25.284288","INCLINATION":"53.2147","PERIAPSIS":"538.100","TIME_SYSTEM":"UTC","GP_ID":"223148930","TLE_LINE1":"1 52119U 22029AH  23015.78432042  .00000823  00000-0  69835-4 0  9992","RA_OF_ASC_NODE":"196.7675","SITE":"AFETR","MEAN_ELEMENT_THEORY":"SGP4","CENTER_NAME":"EARTH","BSTAR":"0.00006983500000","RCS_SIZE":"LARGE","MEAN_ANOMALY":"309.0089","NORAD_CAT_ID":"52119","REV_AT_EPOCH":"4734","MEAN_MOTION_DOT":"0.00000823","ARG_OF_PERICENTER":"51.1113","DECAY_DATE":null,"OBJECT_NAME":"STARLINK-3558","LAUNCH_DATE":"2022-03-19","EPHEMERIS_TYPE":"0","CLASSIFICATION_TYPE":"U","TLE_LINE2":"2 52119  53.2147 196.7675 0002358  51.1113 309.0089 15.08844555 47345","COUNTRY_CODE":"US","PERIOD":"95.437","SEMIMAJOR_AXIS":"6917.866","REF_FRAME":"TEME","OBJECT_TYPE":"PAYLOAD","MEAN_MOTION_DDOT":"0.0000000000000","ECCENTRICITY":"0.00023580","ELEMENT_SET_NO":"999","MEAN_MOTION":"15.08844555"},{"FILE":"3748322","APOAPSIS":"541.382","EPOCH":"2023-01-15T19:05:19.570560","OBJECT_ID":"2022-029AJ","PERIAPSIS":"538.115","INCLINATION":"53.2146","TIME_SYSTEM":"UTC","GP_ID":"223150180","RA_OF_ASC_NODE":"196.7130","TLE_LINE1":"1 52120U 22029AJ  23015.79536540  .00000608  00000-0  56299-4 0  9994","SITE":"AFETR","CENTER_NAME":"EARTH","MEAN_ELEMENT_THEORY":"SGP4","BSTAR":"0.00005629900000","RCS_SIZE":"LARGE","NORAD_CAT_ID":"52120","MEAN_ANOMALY":"309.0556","REV_AT_EPOCH":"4735","ARG_OF_PERICENTER":"51.0646","MEAN_MOTION_DOT":"0.00000608","DECAY_DATE":null,"LAUNCH_DATE":"2022-03-19","OBJECT_NAME":"STARLINK-3534","EPHEMERIS_TYPE":"0","CLASSIFICATION_TYPE":"U","TLE_LINE2":"2 52120  53.2146 196.7130 0002361  51.0646 309.0556 15.08838930 47356","COUNTRY_CODE":"US","PERIOD":"95.438","SEMIMAJOR_AXIS":"6917.884","REF_FRAME":"TEME","ECCENTRICITY":"0.00023610","MEAN_MOTION_DDOT":"0.0000000000000","OBJECT_TYPE":"PAYLOAD","ELEMENT_SET_NO":"999","MEAN_MOTION":"15.08838930"},{"MEAN_ANOMALY":"314.4125","NORAD_CAT_ID":"52121","REV_AT_EPOCH":"4747","RCS_SIZE":"LARGE","BSTAR":"0.00005352200000","TLE_LINE1":"1 52121U 22029AK  23015.76684297  .00000564  00000-0  53522-4 0  9992","SITE":"AFETR","RA_OF_ASC_NODE":"186.8378","MEAN_ELEMENT_THEORY":"SGP4","CENTER_NAME":"EARTH","TIME_SYSTEM":"UTC","GP_ID":"223150429","INCLINATION":"53.2170","PERIAPSIS":"538.195","APOAPSIS":"541.291","OBJECT_ID":"2022-029AK","EPOCH":"2023-01-15T18:24:15.232608","FILE":"3748322","ELEMENT_SET_NO":"999","MEAN_MOTION":"15.08840817","OBJECT_TYPE":"PAYLOAD","MEAN_MOTION_DDOT":"0.0000000000000","ECCENTRICITY":"0.00022380","REF_FRAME":"TEME","COUNTRY_CODE":"US","SEMIMAJOR_AXIS":"6917.878","PERIOD":"95.438","TLE_LINE2":"2 52121  53.2170 186.8378 0002238  45.7051 314.4125 15.08840817 47473","EPHEMERIS_TYPE":"0","CLASSIFICATION_TYPE":"U","OBJECT_NAME":"STARLINK-3678","LAUNCH_DATE":"2022-03-19","ARG_OF_PERICENTER":"45.7051","MEAN_MOTION_DOT":"0.00000564","DECAY_DATE":null},{"TIME_SYSTEM":"UTC","GP_ID":"223149180","INCLINATION":"53.2153","PERIAPSIS":"538.469","EPOCH":"2023-01-15T18:54:43.430688","APOAPSIS":"541.019","OBJECT_ID":"2022-029AL","FILE":"3748322","MEAN_ANOMALY":"304.6937","NORAD_CAT_ID":"52122","REV_AT_EPOCH":"4734","RCS_SIZE":"LARGE","BSTAR":"0.00005812400000","TLE_LINE1":"1 52122U 22029AL  23015.78800267  .00000637  00000-0  58124-4 0  9996","SITE":"AFETR","RA_OF_ASC_NODE":"196.7508","MEAN_ELEMENT_THEORY":"SGP4","CENTER_NAME":"EARTH","TLE_LINE2":"2 52122  53.2153 196.7508 0001843  55.4228 304.6937 15.08840364 47340","EPHEMERIS_TYPE":"0","CLASSIFICATION_TYPE":"U","OBJECT_NAME":"STARLINK-3726","LAUNCH_DATE":"2022-03-19","ARG_OF_PERICENTER":"55.4228","MEAN_MOTION_DOT":"0.00000637","DECAY_DATE":null,"ELEMENT_SET_NO":"999","MEAN_MOTION":"15.08840364","OBJECT_TYPE":"PAYLOAD","MEAN_MOTION_DDOT":"0.0000000000000","ECCENTRICITY":"0.00018430","REF_FRAME":"TEME","COUNTRY_CODE":"US","SEMIMAJOR_AXIS":"6917.879","PERIOD":"95.438"},{"REF_FRAME":"TEME","PERIOD":"95.438","COUNTRY_CODE":"US","SEMIMAJOR_AXIS":"6917.894","ELEMENT_SET_NO":"999","MEAN_MOTION":"15.08835637","OBJECT_TYPE":"PAYLOAD","MEAN_MOTION_DDOT":"0.0000000000000","ECCENTRICITY":"0.00022710","OBJECT_NAME":"STARLINK-3725","LAUNCH_DATE":"2022-03-19","MEAN_MOTION_DOT":"0.00017014","ARG_OF_PERICENTER":"57.9899","DECAY_DATE":null,"TLE_LINE2":"2 52123  53.2157 186.8781 0002271  57.9899 302.1314 15.08835637 47489","EPHEMERIS_TYPE":"0","CLASSIFICATION_TYPE":"U","BSTAR":"0.00108460000000","TLE_LINE1":"1 52123U 22029AM  23015.75950129  .00017014  00000-0  10846-2 0  9991","SITE":"AFETR","RA_OF_ASC_NODE":"186.8781","MEAN_ELEMENT_THEORY":"SGP4","CENTER_NAME":"EARTH","MEAN_ANOMALY":"302.1314","NORAD_CAT_ID":"52123","REV_AT_EPOCH":"4748","RCS_SIZE":"LARGE","APOAPSIS":"541.330","OBJECT_ID":"2022-029AM","EPOCH":"2023-01-15T18:13:40.911456","FILE":"3748322","TIME_SYSTEM":"UTC","GP_ID":"223149429","INCLINATION":"53.2157","PERIAPSIS":"538.188"},{"EPOCH":"2023-01-15T18:44:07.233792","APOAPSIS":"541.135","OBJECT_ID":"2022-029AN","FILE":"3748322","TIME_SYSTEM":"UTC","GP_ID":"223149681","PERIAPSIS":"538.326","INCLINATION":"53.2153","BSTAR":"0.00004257200000","SITE":"AFETR","TLE_LINE1":"1 52124U 22029AN  23015.78063928  .00000389  00000-0  42572-4 0  9997","RA_OF_ASC_NODE":"196.7814","CENTER_NAME":"EARTH","MEAN_ELEMENT_THEORY":"SGP4","NORAD_CAT_ID":"52124","MEAN_ANOMALY":"299.4927","REV_AT_EPOCH":"4734","RCS_SIZE":"LARGE","LAUNCH_DATE":"2022-03-19","OBJECT_NAME":"STARLINK-3684","ARG_OF_PERICENTER":"60.6268","MEAN_MOTION_DOT":"0.00000389","DECAY_DATE":null,"TLE_LINE2":"2 52124  53.2153 196.7814 0002030  60.6268 299.4927 15.08844773 47341","EPHEMERIS_TYPE":"0","CLASSIFICATION_TYPE":"U","REF_FRAME":"TEME","COUNTRY_CODE":"US","PERIOD":"95.437","SEMIMAJOR_AXIS":"6917.866","ELEMENT_SET_NO":"999","MEAN_MOTION":"15.08844773","ECCENTRICITY":"0.00020300","OBJECT_TYPE":"PAYLOAD","MEAN_MOTION_DDOT":"0.0000000000000"},{"RA_OF_ASC_NODE":"186.8753","TLE_LINE1":"1 52125U 22029AP  23015.75580054  .00000506  00000-0  49905-4 0  9997","SITE":"AFETR","CENTER_NAME":"EARTH","MEAN_ELEMENT_THEORY":"SGP4","BSTAR":"0.00004990500000","RCS_SIZE":"LARGE","NORAD_CAT_ID":"52125","MEAN_ANOMALY":"310.5266","REV_AT_EPOCH":"4748","FILE":"3748322","EPOCH":"2023-01-15T18:08:21.166656","APOAPSIS":"541.292","OBJECT_ID":"2022-029AP","PERIAPSIS":"538.197","INCLINATION":"53.2175","TIME_SYSTEM":"UTC","GP_ID":"223149930","COUNTRY_CODE":"US","PERIOD":"95.438","SEMIMAJOR_AXIS":"6917.879","REF_FRAME":"TEME","ECCENTRICITY":"0.00022370","MEAN_MOTION_DDOT":"0.0000000000000","OBJECT_TYPE":"PAYLOAD","ELEMENT_SET_NO":"999","MEAN_MOTION":"15.08840364","ARG_OF_PERICENTER":"49.5921","MEAN_MOTION_DOT":"0.00000506","DECAY_DATE":null,"LAUNCH_DATE":"2022-03-19","OBJECT_NAME":"STARLINK-3727","EPHEMERIS_TYPE":"0","CLASSIFICATION_TYPE":"U","TLE_LINE2":"2 52125  53.2175 186.8753 0002237  49.5921 310.5266 15.08840364 47487"},{"BSTAR":"0.00008012800000","RA_OF_ASC_NODE":"186.8520","TLE_LINE1":"1 52126U 22029AQ  23015.76316174  .00000987  00000-0  80128-4 0  9994","SITE":"AFETR","CENTER_NAME":"EARTH","MEAN_ELEMENT_THEORY":"SGP4","NORAD_CAT_ID":"52126","MEAN_ANOMALY":"311.3946","REV_AT_EPOCH":"4747","RCS_SIZE":"LARGE","OBJECT_ID":"2022-029AQ","APOAPSIS":"541.426","EPOCH":"2023-01-15T18:18:57.174336","FILE":"3748322","TIME_SYSTEM":"UTC","GP_ID":"223148681","PERIAPSIS":"538.043","INCLINATION":"53.2164","REF_FRAME":"TEME","COUNTRY_CODE":"US","PERIOD":"95.437","SEMIMAJOR_AXIS":"6917.869","ELEMENT_SET_NO":"999","MEAN_MOTION":"15.08843653","ECCENTRICITY":"0.00024450","MEAN_MOTION_DDOT":"0.0000000000000","OBJECT_TYPE":"PAYLOAD","LAUNCH_DATE":"2022-03-19","OBJECT_NAME":"STARLINK-3732","MEAN_MOTION_DOT":"0.00000987","ARG_OF_PERICENTER":"48.7256","DECAY_DATE":null,"TLE_LINE2":"2 52126  53.2164 186.8520 0002445  48.7256 311.3946 15.08843653 47478","EPHEMERIS_TYPE":"0","CLASSIFICATION_TYPE":"U"},{"REF_FRAME":"TEME","SEMIMAJOR_AXIS":"6917.870","COUNTRY_CODE":"US","PERIOD":"95.437","MEAN_MOTION":"15.08843558","ELEMENT_SET_NO":"999","ECCENTRICITY":"0.00031000","OBJECT_TYPE":"PAYLOAD","MEAN_MOTION_DDOT":"0.0000000000000","LAUNCH_DATE":"2022-03-19","OBJECT_NAME":"STARLINK-3715","DECAY_DATE":null,"MEAN_MOTION_DOT":"0.00000658","ARG_OF_PERICENTER":"45.8805","TLE_LINE2":"2 52127  53.2169 186.9004 0003100  45.8805 314.2441 15.08843558 47475","CLASSIFICATION_TYPE":"U","EPHEMERIS_TYPE":"0","BSTAR":"0.00005945100000","CENTER_NAME":"EARTH","MEAN_ELEMENT_THEORY":"SGP4","RA_OF_ASC_NODE":"186.9004","TLE_LINE1":"1 52127U 22029AR  23015.75212102  .00000658  00000-0  59451-4 0  9990","SITE":"AFETR","REV_AT_EPOCH":"4747","NORAD_CAT_ID":"52127","MEAN_ANOMALY":"314.2441","RCS_SIZE":"LARGE","APOAPSIS":"541.879","EPOCH":"2023-01-15T18:03:03.256128","OBJECT_ID":"2022-029AR","FILE":"3748322","GP_ID":"223148931","TIME_SYSTEM":"UTC","PERIAPSIS":"537.590","INCLINATION":"53.2169"},{"ARG_OF_PERICENTER":"45.8079","MEAN_MOTION_DOT":"0.00000383","DECAY_DATE":null,"LAUNCH_DATE":"2022-03-19","OBJECT_NAME":"STARLINK-3661","EPHEMERIS_TYPE":"0","CLASSIFICATION_TYPE":"U","TLE_LINE2":"2 52129  53.2173 186.9249 0002818  45.8079 314.3144 15.08841701 47481","SEMIMAJOR_AXIS":"6917.875","COUNTRY_CODE":"US","PERIOD":"95.437","REF_FRAME":"TEME","ECCENTRICITY":"0.00028180","OBJECT_TYPE":"PAYLOAD","MEAN_MOTION_DDOT":"0.0000000000000","ELEMENT_SET_NO":"999","MEAN_MOTION":"15.08841701","FILE":"3748322","OBJECT_ID":"2022-029AT","APOAPSIS":"541.690","EPOCH":"2023-01-15T17:52:27.478272","PERIAPSIS":"537.791","INCLINATION":"53.2173","TIME_SYSTEM":"UTC","GP_ID":"223150181","TLE_LINE1":"1 52129U 22029AT  23015.74476248  .00000383  00000-0  42215-4 0  9999","RA_OF_ASC_NODE":"186.9249","SITE":"AFETR","CENTER_NAME":"EARTH","MEAN_ELEMENT_THEORY":"SGP4","BSTAR":"0.00004221500000","RCS_SIZE":"LARGE","NORAD_CAT_ID":"52129","MEAN_ANOMALY":"314.3144","REV_AT_EPOCH":"4748"}];
